BEIDOU-2 IGSO-1 (C06)   
1 36828U 10036A   26170.91409012 -.00000079  00000+0  00000+0 0  9994
2 36828  54.3039 162.9339 0059154 225.2786 316.6220  1.00271421 58126
BEIDOU-2 G4 (C04)       
1 37210U 10057A   26171.50452723 -.00000118  00000+0  00000+0 0  9990
2 37210   3.6563  68.9346 0005244 195.7113 345.6856  1.00270708 57325
BEIDOU-2 IGSO-2 (C07)   
1 37256U 10068A   26170.91319610 -.00000225  00000+0  00000+0 0  9992
2 37256  47.5419 271.7972 0055919 212.8118 220.2454  1.00282229 56828
BEIDOU-2 IGSO-3 (C08)   
1 37384U 11013A   26169.61194170 -.00000190  00000+0  00000+0 0  9993
2 37384  62.4088  40.1377 0034295 184.6608  10.0015  1.00267082 55679
BEIDOU-2 IGSO-4 (C09)   
1 37763U 11038A   26170.97170663  .00000022  00000+0  00000+0 0  9996
2 37763  54.6006 165.6472 0159516 231.4774 314.4028  1.00284537 54679
BEIDOU-2 IGSO-5 (C10)   
1 37948U 11073A   26169.66754444 -.00000192  00000+0  00000+0 0  9998
2 37948  47.6748 271.5267 0113971 221.7702 105.6518  1.00272695 53143
BEIDOU-2 G5 (C05)       
1 38091U 12008A   26171.47484168  .00000052  00000+0  00000+0 0  9996
2 38091   3.5829  69.6867 0008898 274.2559 154.3488  1.00273287 52403
BEIDOU-2 M3 (C11)       
1 38250U 12018A   26170.87348603 -.00000087  00000+0  00000+0 0  9999
2 38250  55.7552 304.7847 0020163 273.6567  86.1052  1.86229605 95993
BEIDOU-2 M4 (C12)       
1 38251U 12018B   26171.34275042 -.00000090  00000+0  00000+0 0  9993
2 38251  55.6552 303.9826 0011350 275.1363  84.7275  1.86229254 96004
BEIDOU-2 M6 (C14)       
1 38775U 12050B   26171.05246878 -.00000069  00000+0  00000+0 0  9999
2 38775  56.5467  62.7995 0013616 357.8468   2.1878  1.86230944 93365
BEIDOU-2 G6 (C02)       
1 38953U 12059A   26170.70976387 -.00000183  00000+0  00000+0 0  9999
2 38953   4.4288  73.4979 0009632 324.3686 209.6174  1.00271500 49937
BEIDOU-3S IGSO-1S (C31) 
1 40549U 15019A   26170.99557403 -.00000176  00000+0  00000+0 0  9999
2 40549  49.1899 295.4270 0038863 191.0750 231.2891  1.00249609 41107
BEIDOU-3S M2S (C58)     
1 40748U 15037A   26170.47115793 -.00000084  00000+0  00000+0 0  9993
2 40748  54.8690 301.9679 0008432 258.8961 101.0039  1.86231851 74165
BEIDOU-3S M1S (C57)     
1 40749U 15037B   26167.45695291 -.00000070  00000+0  00000+0 0  9999
2 40749  54.8681 302.0590 0003448  61.6955 298.3263  1.86254753 74115
BEIDOU-3S IGSO-2S (C56) 
1 40938U 15053A   26170.70984358 -.00000143  00000+0  00000+0 0  9995
2 40938  49.2167 258.7515 0065583 192.2245 167.5336  1.00258902 39370
BEIDOU-2 IGSO-6 (C13)   
1 41434U 16021A   26167.12386227 -.00000150  00000+0  00000+0 0  9994
2 41434  60.2243  38.0497 0057184 231.4868 132.3999  1.00259474 37472
BEIDOU-2 G7 (C03)       
1 41586U 16037A   26171.55649015 -.00000358  00000+0  00000+0 0  9998
2 41586   1.7295  69.3546 0006474 358.1081 152.1423  1.00274867  6920
BEIDOU-3 M1 (C19)       
1 43001U 17069A   26168.13305361 -.00000051  00000+0  00000+0 0  9991
2 43001  56.6923  63.0864 0010443 325.9765  33.9976  1.86230842 58607
BEIDOU-3 M2 (C20)       
1 43002U 17069B   26170.75658747 -.00000066  00000+0  00000+0 0  9998
2 43002  56.6931  63.0362 0009109 351.9115   8.1147  1.86230559 58648
BEIDOU-3 M7 (C27)       
1 43107U 18003A   26171.03534061 -.00000089  00000+0  00000+0 0  9992
2 43107  54.3254 302.2159 0004851  94.5867 265.4639  1.86227890 57403
BEIDOU-3 M8 (C28)       
1 43108U 18003B   26170.44311341 -.00000085  00000+0  00000+0 0  9997
2 43108  54.3186 302.2181 0002536 260.6635  99.3026  1.86230746 57408
BEIDOU-3 M4 (C22)       
1 43207U 18018A   26170.88611372 -.00000067  00000+0  00000+0 0  9998
2 43207  56.6538  63.0589 0007703  18.9715 341.0976  1.86231045 56797
BEIDOU-3 M3 (C21)       
1 43208U 18018B   26170.95259705 -.00000068  00000+0  00000+0 0  9996
2 43208  56.6535  63.0611 0008691 341.5067  18.5021  1.86230898 56795
BEIDOU-3 M9 (C29)       
1 43245U 18029A   26171.17043730 -.00000089  00000+0  00000+0 0  9996
2 43245  54.1908 299.8436 0000998 153.7677 206.2347  1.86227999 55951
BEIDOU-3 M10 (C30)      
1 43246U 18029B   26170.03086451 -.00000080  00000+0  00000+0 0  9999
2 43246  54.1899 299.9108 0003781  40.0504 319.9737  1.86229038 55915
BEIDOU-2 IGSO-7 (C16)   
1 43539U 18057A   26170.91426345 -.00000031  00000+0  00000+0 0  9998
2 43539  55.1954 163.0329 0105088 238.0240 305.9372  1.00250534 29156
BEIDOU-3 M5 (C23)       
1 43581U 18062A   26171.32881155  .00000068  00000+0  00000+0 0  9990
2 43581  54.0851 182.1963 0005659 290.1184  69.8429  1.86228559 53693
BEIDOU-3 M6 (C24)       
1 43582U 18062B   26171.19229804  .00000066  00000+0  00000+0 0  9991
2 43582  54.0852 182.1905 0005006   8.6086 351.4220  1.86227785 53699
BEIDOU-3 M12 (C26)      
1 43602U 18067A   26169.51983166  .00000056  00000+0  00000+0 0  9999
2 43602  54.1807 180.9950 0007814  29.6797 330.3861  1.86227728 53144
BEIDOU-3 M11 (C25)      
1 43603U 18067B   26171.26578027  .00000068  00000+0  00000+0 0  9994
2 43603  54.1780 180.8993 0004517  12.7566 347.2746  1.86227129 53206
BEIDOU-3 M13 (C32)      
1 43622U 18072A   26170.14673130 -.00000062  00000+0  00000+0 0  9993
2 43622  56.6261  62.5952 0007172 330.4158  29.5857  1.86231019 52694
BEIDOU-3 M14 (C33)      
1 43623U 18072B   26171.08607478 -.00000070  00000+0  00000+0 0  9999
2 43623  56.6291  62.5586 0006180   2.1537 357.8895  1.86231035 52702
BEIDOU-3 M16 (C35)      
1 43647U 18078A   26171.24134385 -.00000090  00000+0  00000+0 0  9993
2 43647  54.0868 299.8789 0007135  41.0909 318.9600  1.86232267 52212
BEIDOU-3 M15 (C34)      
1 43648U 18078B   26171.37062705 -.00000091  00000+0  00000+0 0  9995
2 43648  54.0825 299.8748 0004076  58.0000 302.0369  1.86232388 52234
BEIDOU-3 G1 (C59)       
1 43683U 18085A   26171.55031935 -.00000114  00000+0  00000+0 0  9999
2 43683   2.8779  97.2769 0008108 350.3450 179.1925  1.00270343 28099
BEIDOU-3 M17 (C36)      
1 43706U 18093A   26171.14381582  .00000066  00000+0  00000+0 0  9990
2 43706  54.1691 182.1955 0010190 292.3118 167.2714  1.86228386 51598
BEIDOU-3 M18 (C37)      
1 43707U 18093B   26170.32164601  .00000059  00000+0  00000+0 0  9993
2 43707  54.1697 182.2155 0008016 320.7909  39.1732  1.86226376 51578
BEIDOU-3 IGSO-1 (C38)   
1 44204U 19023A   26171.54826712 -.00000229  00000+0  00000+0 0  9993
2 44204  58.6998  37.6136 0025616 225.5297 321.1703  1.00290704  7242
BEIDOU-2 G8 (C01)       
1 44231U 19027A   26171.49194222 -.00000252  00000+0  00000+0 0  9991
2 44231   1.6677  74.5107 0010127 282.1767 233.6407  1.00269876 26115
BEIDOU-3 IGSO-2 (C39)   
1 44337U 19035A   26171.00863270 -.00000089  00000+0  00000+0 0  9998
2 44337  55.2483 158.8374 0039469 216.1326  15.9665  1.00265164 25697
BEIDOU-3 M24 (C46)      
1 44542U 19061A   26169.85330200  .00000056  00000+0  00000+0 0  9990
2 44542  54.3963 182.6715 0008348 358.6027   1.4189  1.86229057 45827
BEIDOU-3 M23 (C45)      
1 44543U 19061B   26171.17384045  .00000066  00000+0  00000+0 0  9996
2 44543  54.3949 182.5950 0005754 338.0602  98.8908  1.86227398 45859
BEIDOU-3 M22 (C44)      
1 44793U 19078A   26171.30405669 -.00000090  00000+0  00000+0 0  9990
2 44793  53.9328 299.7182 0006301  50.9808 309.0727  1.86227062 44704
BEIDOU-3 M21 (C43)      
1 44794U 19078B   26169.29611751 -.00000076  00000+0  00000+0 0  9991
2 44794  53.9076 299.7502 0004064  49.2520 310.7784  1.86227678 44678
BEIDOU-3 M19 (C41)      
1 44864U 19090A   26170.32723203 -.00000063  00000+0  00000+0 0  9991
2 44864  56.5606  62.7196 0017807 298.1010 230.5750  1.86231227 44272
BEIDOU-3 M20 (C42)      
1 44865U 19090B   26171.17437432 -.00000071  00000+0  00000+0 0  9991
2 44865  56.5632  62.7263 0015528 312.5964 153.6305  1.86231200 44276
BEIDOU-3 G2 (C60)       
1 45344U 20017A   26171.55044312 -.00000146  00000+0  00000+0 0  9991
2 45344   2.8718  47.4171 0002080  33.7331 105.8499  1.00271707 23299
BEIDOU-3 G3 (C61)       
1 45807U 20040A   26171.55649015 -.00000357  00000+0  00000+0 0  9996
2 45807   2.4567  67.4619 0002376 337.6659 174.3985  1.00264759 22106
BEIDOU-3 G4 (C62)       
1 56564U 23066A   26171.56150958 -.00000285  00000+0  00000+0 0  9993
2 56564   0.4822 332.4401 0004468 178.7031  99.8194  1.00272833 11424
BEIDOU-3 M28 (C50)      
1 58654U 23207A   26170.98407190 -.00000071  00000+0  00000+0 0  9993
2 58654  55.7552  62.2085 0003174 349.4028  10.6308  1.86229736 16893
BEIDOU-3 M26 (C48)      
1 58655U 23207B   26168.63373978 -.00000055  00000+0  00000+0 0  9991
2 58655  55.7554  62.2745 0003074 320.8163  39.2030  1.86229688 16830
BEIDOU-3 M25 (C47)      
1 61186U 24168B   26170.87388850 -.00000088  00000+0  00000+0 0  9991
2 61186  54.4707 302.1484 0003007 300.7544 238.5226  1.86230002 11839
BEIDOU-3 M27 (C49)      
1 61187U 24168C   26171.45985458 -.00000092  00000+0  00000+0 0  9999
2 61187  54.4653 302.1109 0001518  51.2333 295.9316  1.86230118  9318
